ONEWEB-0020             
1 45133U 20008C   24315.52218512 -.00000056  00000+0 -19591-3 0  9997
2 45133  87.8901 152.4784 0001359  79.3691 280.7590 13.10377995231906
ONEWEB-0021             
1 45134U 20008D   24315.84259281  .00000509  00000+0  14212-2 0  9996
2 45134  87.8901 152.4371 0001710  85.2005 274.9318 13.10375136232252
ONEWEB-0023             
1 45136U 20008F   24315.85500831  .00000566  00000+0  15848-2 0  9998
2 45136  87.8899 152.4229 0001470  99.2003 260.9290 13.10377587231680
ONEWEB-0024             
1 45137U 20008G   24314.52787795  .00000099  00000+0  24729-3 0  9998
2 45137  87.8896 152.6585 0001555  81.0133 279.1170 13.10377229231673
ONEWEB-0026             
1 45139U 20008J   24315.79345595  .00000233  00000+0  62291-3 0  9994
2 45139  87.8886 137.2918 0001387  83.5065 276.6221 13.11418750234642
ONEWEB-0028             
1 45140U 20008K   24315.74852508  .00000126  00000+0  31899-3 0  9999
2 45140  87.8880 137.3346 0002081  98.3967 261.7397 13.11416352232150
ONEWEB-0032             
1 45141U 20008L   24315.78281340  .00000473  00000+0  13191-2 0  9993
2 45141  87.8888 152.4586 0001684  89.4398 270.6922 13.10371867231893
